[{"OBJECT_NAME":"STARLINK-6296","OBJECT_ID":"2023-078G","EPOCH":"2026-03-09T23:11:47.813568","MEAN_MOTION":14.98325501,"ECCENTRICITY":0.00027866,"INCLINATION":69.999,"RA_OF_ASC_NODE":303.9273,"ARG_OF_PERICENTER":270.4408,"MEAN_ANOMALY":89.6431,"EPHEMERIS_TYPE":0,"CLASSIFICATION_TYPE":"U","NORAD_CAT_ID":56773,"ELEMENT_SET_NO":999,"REV_AT_EPOCH":15370,"BSTAR":2.3787996e-5,"MEAN_MOTION_DOT":1.91e-6,"MEAN_MOTION_DDOT":0},{"OBJECT_NAME":"CZ-6A DEB","OBJECT_ID":"2024-140AAU","EPOCH":"2026-03-09T16:48:50.985504","MEAN_MOTION":14.99127941,"ECCENTRICITY":0.00591225,"INCLINATION":89.196,"RA_OF_ASC_NODE":296.0099,"ARG_OF_PERICENTER":104.8686,"MEAN_ANOMALY":255.9106,"EPHEMERIS_TYPE":0,"CLASSIFICATION_TYPE":"U","NORAD_CAT_ID":61486,"ELEMENT_SET_NO":999,"REV_AT_EPOCH":8015,"BSTAR":0.0049724997,"MEAN_MOTION_DOT":0.00063139,"MEAN_MOTION_DDOT":0}]
